{
  "type": "Feature",
  "properties": {
    "name": "Сочи: локальный стартовый сегмент",
    "source": "OpenStreetMap, way 59530506, выгрузка 2026-08-17, лицензия ODbL",
    "warning": "Сегмент предназначен для технического запуска и не заменяет геодезическую съёмку или проектный прогноз."
  },
  "geometry": {
    "type": "LineString",
    "coordinates": [
      [39.6679270, 43.6442458],
      [39.6739089, 43.6407472],
      [39.6792709, 43.6389198],
      [39.6853954, 43.6341751],
      [39.6907965, 43.6306556],
      [39.6948478, 43.6254352],
      [39.6976633, 43.6232291],
      [39.6995026, 43.6205021],
      [39.7022950, 43.6141286],
      [39.7049418, 43.6069904],
      [39.7076189, 43.5996830],
      [39.7100890, 43.5924374],
      [39.7129247, 43.5854760]
    ]
  }
}
